{
  "type": "FeatureCollection",
  "generator": "overpass-turbo",
  "copyright": "The data included in this document is from www.openstreetmap.org. The data is made available under ODbL.",
  "timestamp": "2026-02-15T14:44:30Z",
  "features": [
    {
      "type": "Feature",
      "properties": {
        "@id": "relation/1276889",
        "admin_level": "6",
        "boundary": "administrative",
        "name": "Üsküdar",
        "name:ar": "أسكدار",
        "name:mk": "Усќудар",
        "name:ru": "Ускюдар",
        "name:tr": "Üsküdar",
        "name:tr:suffix": "İlçesi",
        "network": "TR34-districts",
        "population": "517348",
        "population:date": "2024-01-01",
        "type": "boundary",
        "wikidata": "Q326339",
        "wikipedia": "tr:Üsküdar"
      },
      "geometry": {
        "type": "Polygon",
        "coordinates": [
          [
            [
              29.0678748,
              41.0757472
            ],
            [
              29.0676958,
              41.0759102
            ],
            [
              29.066762,
              41.076747
            ],
            [
              29.0662579,
              41.0770072
            ],
            [
              29.0652741,
              41.077406
            ],
            [
              29.0642506,
              41.0778919
            ],
            [
              29.0643017,
              41.0777076
            ],
            [
              29.0643418,
              41.077603
            ],
            [
              29.0643613,
              41.0775869
            ],
            [
              29.0644925,
              41.077533
            ],
            [
              29.0643261,
              41.077148
            ],
            [
              29.0641772,
              41.0771916
            ],
            [
              29.06388,
              41.0766292
            ],
            [
              29.063693,
              41.0763721
            ],
            [
              29.0633595,
              41.0763642
            ],
            [
              29.0633601,
              41.076397
            ],
            [
              29.063243,
              41.0763966
            ],
            [
              29.0632422,
              41.0763807
            ],
            [
              29.0630343,
              41.0763858
            ],
            [
              29.0629036,
              41.0763844
            ],
            [
              29.0628179,
              41.0763755
            ],
            [
              29.0628167,
              41.0763546
            ],
            [
              29.0625512,
              41.0763546
            ],
            [
              29.0624556,
              41.0763231
            ],
            [
              29.0624951,
              41.0760852
            ],
            [
              29.0622769,
              41.0760274
            ],
            [
              29.0622545,
              41.0761752
            ],
            [
              29.062044,
              41.0761721
            ],
            [
              29.0620486,
              41.0761424
            ],
            [
              29.0620644,
              41.0761425
            ],
            [
              29.0620715,
              41.0761125
            ],
            [
              29.0619893,
              41.0761019
            ],
            [
              29.0619995,
              41.0760529
            ],
            [
              29.0619556,
              41.0760448
            ],
            [
              29.0619577,
              41.0760194
            ],
            [
              29.0617935,
              41.0759689
            ],
            [
              29.0616486,
              41.0759113
            ],
            [
              29.0616779,
              41.075849
            ],
            [
              29.0615358,
              41.0758073
            ],
            [
              29.0615427,
              41.075787
            ],
            [
              29.0614969,
              41.0757743
            ],
            [
              29.0615333,
              41.0756983
            ],
            [
              29.0613763,
              41.0756507
            ],
            [
              29.0613803,
              41.0756385
            ],
            [
              29.0613477,
              41.0756284
            ],
            [
              29.0613818,
              41.075561
            ],
            [
              29.0612931,
              41.075529
            ],
            [
              29.061063,
              41.0754449
            ],
            [
              29.061147,
              41.075322
            ],
            [
              29.0611163,
              41.0753102
            ],
            [
              29.0611068,
              41.0753244
            ],
            [
              29.0610714,
              41.0753117
            ],
            [
              29.0610277,
              41.0753768
            ],
            [
              29.0610534,
              41.0753906
            ],
            [
              29.0610292,
              41.0754267
            ],
            [
              29.0606778,
              41.0752869
            ],
            [
              29.0602898,
              41.0751747
            ],
            [
              29.060256,
              41.0751323
            ],
            [
              29.0598871,
              41.0749537
            ],
            [
              29.0598919,
              41.0749242
            ],
            [
              29.0598103,
              41.0748946
            ],
            [
              29.0597918,
              41.0749199
            ],
            [
              29.0595114,
              41.074837
            ],
            [
              29.0595389,
              41.0747882
            ],
            [
              29.0590568,
              41.0746517
            ],
            [
              29.05904,
              41.0746827
            ],
            [
              29.0585848,
              41.0745443
            ],
            [
              29.0583884,
              41.0744846
            ],
            [
              29.0583299,
              41.0744696
            ],
            [
              29.0582813,
              41.0745739
            ],
            [
              29.0583273,
              41.0745854
            ],
            [
              29.0582947,
              41.0746611
            ],
            [
              29.0580532,
              41.0745965
            ],
            [
              29.0580921,
              41.0745205
            ],
            [
              29.058128,
              41.0745303
            ],
            [
              29.0581701,
              41.0744286
            ],
            [
              29.0580966,
              41.0744393
            ],
            [
              29.0576585,
              41.0744449
            ],
            [
              29.057019,
              41.0744424
            ],
            [
              29.0563152,
              41.0744412
            ],
            [
              29.0561678,
              41.0744075
            ],
            [
              29.0560248,
              41.0743599
            ],
            [
              29.055917,
              41.0743206
            ],
            [
              29.0558405,
              41.0742771
            ],
            [
              29.0557869,
              41.0742336
            ],
            [
              29.055741,
              41.0741715
            ],
            [
              29.0557225,
              41.074084
            ],
            [
              29.0555626,
              41.0737585
            ],
            [
              29.0555482,
              41.0737511
            ],
            [
              29.0553974,
              41.0734638
            ],
            [
              29.0553725,
              41.0733895
            ],
            [
              29.0553524,
              41.0732843
            ],
            [
              29.0553524,
              41.0732449
            ],
            [
              29.0553671,
              41.0731852
            ],
            [
              29.055388,
              41.0731194
            ],
            [
              29.0554181,
              41.0729557
            ],
            [
              29.0554824,
              41.0725715
            ],
            [
              29.0556045,
              41.0722652
            ],
            [
              29.0555723,
              41.0722581
            ],
            [
              29.0555884,
              41.072154
            ],
            [
              29.0558789,
              41.0716031
            ],
            [
              29.0559761,
              41.0712987
            ],
            [
              29.0560537,
              41.0710403
            ],
            [
              29.0560482,
              41.0708896
            ],
            [
              29.0560822,
              41.0707453
            ],
            [
              29.0561236,
              41.0706076
            ],
            [
              29.0561491,
              41.0705552
            ],
            [
              29.0562331,
              41.0705291
            ],
            [
              29.0562973,
              41.0704864
            ],
            [
              29.0564334,
              41.0703323
            ],
            [
              29.0564089,
              41.0703166
            ],
            [
              29.0564342,
              41.0702893
            ],
            [
              29.0564594,
              41.0703036
            ],
            [
              29.0565055,
              41.0702423
            ],
            [
              29.0565285,
              41.0702479
            ],
            [
              29.0565373,
              41.070229
            ],
            [
              29.0564924,
              41.070217
            ],
            [
              29.0565112,
              41.070153
            ],
            [
              29.0565598,
              41.0701623
            ],
            [
              29.0565679,
              41.0701345
            ],
            [
              29.0565786,
              41.0701361
            ],
            [
              29.0567052,
              41.0697368
            ],
            [
              29.0566746,
              41.0697288
            ],
            [
              29.0566545,
              41.0696159
            ],
            [
              29.0566554,
              41.0695561
            ],
            [
              29.0566652,
              41.0695015
            ],
            [
              29.0566824,
              41.0694562
            ],
            [
              29.0567219,
              41.0693859
            ],
            [
              29.0566949,
              41.0693773
            ],
            [
              29.0567077,
              41.0693556
            ],
            [
              29.0567328,
              41.0693641
            ],
            [
              29.0567622,
              41.0693255
            ],
            [
              29.0568358,
              41.0692286
            ],
            [
              29.0568102,
              41.0692183
            ],
            [
              29.0568315,
              41.0691843
            ],
            [
              29.0568619,
              41.0691972
            ],
            [
              29.0569584,
              41.0690392
            ],
            [
              29.0569963,
              41.0689568
            ],
            [
              29.0570209,
              41.0689618
            ],
            [
              29.0571431,
              41.0685778
            ],
            [
              29.0570455,
              41.0683861
            ],
            [
              29.0569902,
              41.0681509
            ],
            [
              29.0569683,
              41.0681541
            ],
            [
              29.0568132,
              41.0677514
            ],
            [
              29.0568278,
              41.0675941
            ],
            [
              29.0567971,
              41.0675931
            ],
            [
              29.0567949,
              41.0676067
            ],
            [
              29.0567742,
              41.0676054
            ],
            [
              29.0567802,
              41.0675217
            ],
            [
              29.0568037,
              41.0675231
            ],
            [
              29.0568038,
              41.0675323
            ],
            [
              29.0568388,
              41.0675342
            ],
            [
              29.0568562,
              41.0673866
            ],
            [
              29.0569432,
              41.0673876
            ],
            [
              29.0569459,
              41.0672781
            ],
            [
              29.0569135,
              41.067276
            ],
            [
              29.0569178,
              41.0671871
            ],
            [
              29.0569776,
              41.0671866
            ],
            [
              29.0569435,
              41.0668432
            ],
            [
              29.0569597,
              41.0664207
            ],
            [
              29.0563418,
              41.0657153
            ],
            [
              29.0558611,
              41.0653076
            ],
            [
              29.0553547,
              41.0646799
            ],
            [
              29.054889,
              41.064052
            ],
            [
              29.054534,
              41.063545
            ],
            [
              29.054178,
              41.063038
            ],
            [
              29.054006,
              41.062912
            ],
            [
              29.0537325,
              41.0626025
            ],
            [
              29.053485,
              41.062537
            ],
            [
              29.0528141,
              41.0620978
            ],
            [
              29.0524193,
              41.0615024
            ],
            [
              29.052454,
              41.0610468
            ],
            [
              29.0524794,
              41.0607128
            ],
            [
              29.0526596,
              41.0601239
            ],
            [
              29.0528227,
              41.0598521
            ],
            [
              29.0531832,
              41.0580788
            ],
            [
              29.0532776,
              41.0574639
            ],
            [
              29.05296,
              41.0571856
            ],
            [
              29.0528399,
              41.0569591
            ],
            [
              29.0526682,
              41.0567131
            ],
            [
              29.0521704,
              41.0559106
            ],
            [
              29.0519558,
              41.0553863
            ],
            [
              29.0519706,
              41.0553258
            ],
            [
              29.0516909,
              41.0543876
            ],
            [
              29.0516367,
              41.0541265
            ],
            [
              29.0516297,
              41.0539883
            ],
            [
              29.0516245,
              41.0536195
            ],
            [
              29.0516829,
              41.0535227
            ],
            [
              29.0517145,
              41.0535265
            ],
            [
              29.0517366,
              41.0535246
            ],
            [
              29.0517689,
              41.0533948
            ],
            [
              29.0516864,
              41.0527334
            ],
            [
              29.0513979,
              41.0521566
            ],
            [
              29.0514203,
              41.0515431
            ],
            [
              29.0514376,
              41.0512167
            ],
            [
              29.0515054,
              41.0511116
            ],
            [
              29.0513584,
              41.0510521
            ],
            [
              29.0514572,
              41.0509261
            ],
            [
              29.0516743,
              41.0510154
            ],
            [
              29.0520416,
              41.0506938
            ],
            [
              29.052385,
              41.0504219
            ],
            [
              29.052179,
              41.0499106
            ],
            [
              29.0523099,
              41.0498629
            ],
            [
              29.0524781,
              41.0496623
            ],
            [
              29.0525495,
              41.0496678
            ],
            [
              29.052588,
              41.0494417
            ],
            [
              29.0522155,
              41.0492126
            ],
            [
              29.0521506,
              41.0490634
            ],
            [
              29.0522517,
              41.0488172
            ],
            [
              29.0522123,
              41.0487973
            ],
            [
              29.0523378,
              41.0485591
            ],
            [
              29.0520578,
              41.0483035
            ],
            [
              29.0521167,
              41.0482385
            ],
            [
              29.0511923,
              41.0478139
            ],
            [
              29.0512319,
              41.0477629
            ],
            [
              29.0507534,
              41.0475487
            ],
            [
              29.0494535,
              41.0472965
            ],
            [
              29.0494674,
              41.0471465
            ],
            [
              29.0489501,
              41.0469375
            ],
            [
              29.048184,
              41.046588
            ],
            [
              29.0478151,
              41.0464234
            ],
            [
              29.0476851,
              41.0463377
            ],
            [
              29.0474393,
              41.0462474
            ],
            [
              29.046843,
              41.0459688
            ],
            [
              29.0462853,
              41.0457127
            ],
            [
              29.0460299,
              41.0455794
            ],
            [
              29.045833,
              41.045473
            ],
            [
              29.0457904,
              41.0455258
            ],
            [
              29.0456332,
              41.0455063
            ],
            [
              29.0452954,
              41.0453081
            ],
            [
              29.045284,
              41.0452744
            ],
            [
              29.0453085,
              41.045209
            ],
            [
              29.045005,
              41.0450957
            ],
            [
              29.0447901,
              41.0449999
            ],
            [
              29.0445546,
              41.0449233
            ],
            [
              29.0445361,
              41.0449164
            ],
            [
              29.0444462,
              41.0448818
            ],
            [
              29.0439176,
              41.0446783
            ],
            [
              29.043818,
              41.0446399
            ],
            [
              29.0436526,
              41.0445207
            ],
            [
              29.0433701,
              41.0442631
            ],
            [
              29.043116,
              41.0440161
            ],
            [
              29.0428002,
              41.0438946
            ],
            [
              29.0427446,
              41.043892
            ],
            [
              29.042224,
              41.043868
            ],
            [
              29.0421656,
              41.0437885
            ],
            [
              29.0421454,
              41.0437611
            ],
            [
              29.0410224,
              41.0436345
            ],
            [
              29.0407125,
              41.0434801
            ],
            [
              29.0392515,
              41.042662
            ],
            [
              29.0384762,
              41.0421844
            ],
            [
              29.0383073,
              41.0420803
            ],
            [
              29.0378538,
              41.0417608
            ],
            [
              29.0376024,
              41.0416271
            ],
            [
              29.0375345,
              41.0416852
            ],
            [
              29.0369461,
              41.0413576
            ],
            [
              29.0370006,
              41.0413046
            ],
            [
              29.0370491,
              41.0413294
            ],
            [
              29.0370293,
              41.0413515
            ],
            [
              29.0374945,
              41.0416129
            ],
            [
              29.0376304,
              41.0414907
            ],
            [
              29.0371663,
              41.0412213
            ],
            [
              29.0371054,
              41.0412773
            ],
            [
              29.0370565,
              41.0412493
            ],
            [
              29.0371261,
              41.0411804
            ],
            [
              29.037054,
              41.041136
            ],
            [
              29.0368669,
              41.0410292
            ],
            [
              29.0362036,
              41.0406743
            ],
            [
              29.0356712,
              41.0402622
            ],
            [
              29.0356955,
              41.0402395
            ],
            [
              29.0353791,
              41.039987
            ],
            [
              29.0353304,
              41.0399482
            ],
            [
              29.035174,
              41.0398932
            ],
            [
              29.0351464,
              41.0398954
            ],
            [
              29.0349543,
              41.0398158
            ],
            [
              29.0349581,
              41.0398011
            ],
            [
              29.0349239,
              41.0397926
            ],
            [
              29.0348365,
              41.0397711
            ],
            [
              29.0348412,
              41.0397562
            ],
            [
              29.0347701,
              41.0397216
            ],
            [
              29.0347733,
              41.0397063
            ],
            [
              29.0346481,
              41.0396766
            ],
            [
              29.0346447,
              41.0396892
            ],
            [
              29.0345919,
              41.0396765
            ],
            [
              29.0345971,
              41.0396646
            ],
            [
              29.0344556,
              41.0396311
            ],
            [
              29.034461,
              41.0396188
            ],
            [
              29.0343502,
              41.0395912
            ],
            [
              29.0342993,
              41.0395752
            ],
            [
              29.0343102,
              41.0395514
            ],
            [
              29.0341081,
              41.0394896
            ],
            [
              29.0340342,
              41.0394591
            ],
            [
              29.0340112,
              41.0394529
            ],
            [
              29.0339426,
              41.0394345
            ],
            [
              29.0338384,
              41.0393823
            ],
            [
              29.0334951,
              41.0393199
            ],
            [
              29.0333536,
              41.0392389
            ],
            [
              29.0332764,
              41.039109
            ],
            [
              29.0329025,
              41.0388634
            ],
            [
              29.0328022,
              41.0387346
            ],
            [
              29.0325221,
              41.0386359
            ],
            [
              29.0318727,
              41.0385288
            ],
            [
              29.0317806,
              41.0384943
            ],
            [
              29.0315999,
              41.0384123
            ],
            [
              29.0316266,
              41.038371
            ],
            [
              29.0314279,
              41.0382731
            ],
            [
              29.0312434,
              41.0381498
            ],
            [
              29.0312243,
              41.0381369
            ],
            [
              29.031272,
              41.0380967
            ],
            [
              29.0312153,
              41.0380611
            ],
            [
              29.0310246,
              41.0379414
            ],
            [
              29.0309723,
              41.03797
            ],
            [
              29.0308991,
              41.0379087
            ],
            [
              29.0307403,
              41.0377535
            ],
            [
              29.0305589,
              41.0375288
            ],
            [
              29.0304438,
              41.037423
            ],
            [
              29.0302886,
              41.037333
            ],
            [
              29.030136,
              41.0371973
            ],
            [
              29.029998,
              41.0371089
            ],
            [
              29.0298473,
              41.0370075
            ],
            [
              29.0297807,
              41.0369713
            ],
            [
              29.029683,
              41.0370784
            ],
            [
              29.029555,
              41.0370124
            ],
            [
              29.029645,
              41.0369131
            ],
            [
              29.0295988,
              41.0368892
            ],
            [
              29.029621,
              41.0368648
            ],
            [
              29.0295383,
              41.0368145
            ],
            [
              29.0295241,
              41.0368366
            ],
            [
              29.0293764,
              41.0367606
            ],
            [
              29.0294067,
              41.0367021
            ],
            [
              29.029361,
              41.0366901
            ],
            [
              29.0293654,
              41.0366756
            ],
            [
              29.0293241,
              41.0366584
            ],
            [
              29.029308,
              41.0366989
            ],
            [
              29.0291846,
              41.0366503
            ],
            [
              29.0291614,
              41.036677
            ],
            [
              29.0287968,
              41.0365255
            ],
            [
              29.0285329,
              41.036394
            ],
            [
              29.0282177,
              41.0362346
            ],
            [
              29.0277997,
              41.0360274
            ],
            [
              29.0275398,
              41.0358741
            ],
            [
              29.0271266,
              41.0355413
            ],
            [
              29.0266527,
              41.0351337
            ],
            [
              29.0264764,
              41.0350076
            ],
            [
              29.0264296,
              41.0350207
            ],
            [
              29.026331,
              41.034962
            ],
            [
              29.026184,
              41.034898
            ],
            [
              29.0262151,
              41.0348693
            ],
            [
              29.0261113,
              41.0348184
            ],
            [
              29.0260577,
              41.0348419
            ],
            [
              29.025896,
              41.0347199
            ],
            [
              29.0255802,
              41.0344569
            ],
            [
              29.025383,
              41.0343134
            ],
            [
              29.0252221,
              41.0341685
            ],
            [
              29.0251822,
              41.0341811
            ],
            [
              29.0250816,
              41.0341031
            ],
            [
              29.0248068,
              41.0338827
            ],
            [
              29.0245256,
              41.0336794
            ],
            [
              29.0243453,
              41.0335314
            ],
            [
              29.0243612,
              41.0335139
            ],
            [
              29.0242453,
              41.0334436
            ],
            [
              29.0240554,
              41.0333343
            ],
            [
              29.0239857,
              41.0332885
            ],
            [
              29.0238151,
              41.0331763
            ],
            [
              29.0235524,
              41.0330121
            ],
            [
              29.0231626,
              41.032748
            ],
            [
              29.0231449,
              41.0327617
            ],
            [
              29.0227713,
              41.0325134
            ],
            [
              29.0228066,
              41.0324811
            ],
            [
              29.0223404,
              41.0321994
            ],
            [
              29.0223549,
              41.0321884
            ],
            [
              29.0224209,
              41.0321275
            ],
            [
              29.0222102,
              41.0320034
            ],
            [
              29.0221487,
              41.0320682
            ],
            [
              29.0221394,
              41.0320818
            ],
            [
              29.0220901,
              41.032051
            ],
            [
              29.0219459,
              41.0319293
            ],
            [
              29.0217672,
              41.031862
            ],
            [
              29.021708,
              41.0319506
            ],
            [
              29.0216968,
              41.0319796
            ],
            [
              29.0217981,
              41.032015
            ],
            [
              29.0217688,
              41.032057
            ],
            [
              29.0214676,
              41.0319499
            ],
            [
              29.0214959,
              41.0319019
            ],
            [
              29.0215884,
              41.0319367
            ],
            [
              29.0216045,
              41.0319125
            ],
            [
              29.0216607,
              41.0318293
            ],
            [
              29.021005,
              41.0315902
            ],
            [
              29.0203908,
              41.0315604
            ],
            [
              29.0201493,
              41.0315029
            ],
            [
              29.0200951,
              41.0315505
            ],
            [
              29.019344,
              41.0310675
            ],
            [
              29.0191084,
              41.0309295
            ],
            [
              29.0187086,
              41.0306622
            ],
            [
              29.0180458,
              41.030233
            ],
            [
              29.017537,
              41.0299596
            ],
            [
              29.0173153,
              41.0297636
            ],
            [
              29.0171304,
              41.029579
            ],
            [
              29.0168372,
              41.0292421
            ],
            [
              29.0167277,
              41.0291162
            ],
            [
              29.0166597,
              41.0291161
            ],
            [
              29.0165321,
              41.0289897
            ],
            [
              29.0164034,
              41.0288624
            ],
            [
              29.0162899,
              41.0287502
            ],
            [
              29.016345,
              41.0287123
            ],
            [
              29.0161299,
              41.0285509
            ],
            [
              29.0160409,
              41.0283783
            ],
            [
              29.0161079,
              41.0283142
            ],
            [
              29.0160556,
              41.0282721
            ],
            [
              29.0159251,
              41.0281629
            ],
            [
              29.0157836,
              41.0280444
            ],
            [
              29.0157405,
              41.0280083
            ],
            [
              29.0156905,
              41.0280423
            ],
            [
              29.0155857,
              41.0279547
            ],
            [
              29.0155045,
              41.0281329
            ],
            [
              29.0153843,
              41.0282226
            ],
            [
              29.0152875,
              41.0281402
            ],
            [
              29.015176,
              41.0280439
            ],
            [
              29.0152824,
              41.0279736
            ],
            [
              29.0150849,
              41.0278286
            ],
            [
              29.0150029,
              41.0278174
            ],
            [
              29.014792,
              41.0276035
            ],
            [
              29.0146967,
              41.0274852
            ],
            [
              29.014668,
              41.0274495
            ],
            [
              29.0146423,
              41.0274121
            ],
            [
              29.0147844,
              41.0273216
            ],
            [
              29.0144712,
              41.0271027
            ],
            [
              29.0144379,
              41.027144
            ],
            [
              29.0143208,
              41.0271013
            ],
            [
              29.0141644,
              41.0270371
            ],
            [
              29.0139874,
              41.0269474
            ],
            [
              29.0137916,
              41.0268088
            ],
            [
              29.0136011,
              41.0266307
            ],
            [
              29.013458,
              41.0264429
            ],
            [
              29.0135121,
              41.0264219
            ],
            [
              29.0132985,
              41.0262248
            ],
            [
              29.013168,
              41.0261531
            ],
            [
              29.0126905,
              41.0260605
            ],
            [
              29.0125493,
              41.0260707
            ],
            [
              29.0124084,
              41.0261044
            ],
            [
              29.0120315,
              41.0261899
            ],
            [
              29.0116781,
              41.0261994
            ],
            [
              29.0113429,
              41.0260859
            ],
            [
              29.0110203,
              41.026103
            ],
            [
              29.0107774,
              41.026162
            ],
            [
              29.0106133,
              41.0261464
            ],
            [
              29.0102818,
              41.0260935
            ],
            [
              29.0101426,
              41.0260639
            ],
            [
              29.0098422,
              41.0259944
            ],
            [
              29.0096328,
              41.0259405
            ],
            [
              29.0095791,
              41.0259628
            ],
            [
              29.0095189,
              41.0259551
            ],
            [
              29.0094893,
              41.0259203
            ],
            [
              29.0094946,
              41.0258899
            ],
            [
              29.0094142,
              41.0258242
            ],
            [
              29.0094075,
              41.0258039
            ],
            [
              29.0089044,
              41.0254839
            ],
            [
              29.0087274,
              41.0253515
            ],
            [
              29.0085609,
              41.0252224
            ],
            [
              29.0084258,
              41.0250866
            ],
            [
              29.0079997,
              41.0246297
            ],
            [
              29.0076511,
              41.0242615
            ],
            [
              29.00745,
              41.0240377
            ],
            [
              29.0072381,
              41.0237643
            ],
            [
              29.007113,
              41.0235214
            ],
            [
              29.006993,
              41.023305
            ],
            [
              29.0068866,
              41.0231534
            ],
            [
              29.006788,
              41.0230991
            ],
            [
              29.0064614,
              41.0225292
            ],
            [
              29.0063673,
              41.0223138
            ],
            [
              29.0063631,
              41.0221357
            ],
            [
              29.0064332,
              41.0218007
            ],
            [
              29.0065435,
              41.0214671
            ],
            [
              29.0068446,
              41.0209944
            ],
            [
              29.0069368,
              41.0209682
            ],
            [
              29.0071098,
              41.0207215
            ],
            [
              29.0070272,
              41.0206399
            ],
            [
              29.0075127,
              41.0200835
            ],
            [
              29.0076722,
              41.0199356
            ],
            [
              29.0084351,
              41.0193304
            ],
            [
              29.0085185,
              41.0193417
            ],
            [
              29.0086212,
              41.0192273
            ],
            [
              29.0086188,
              41.0190316
            ],
            [
              29.0086604,
              41.0188322
            ],
            [
              29.0084867,
              41.018751
            ],
            [
              29.0085172,
              41.0186978
            ],
            [
              29.0086604,
              41.0187085
            ],
            [
              29.008653,
              41.0186033
            ],
            [
              29.0086212,
              41.0183929
            ],
            [
              29.0086259,
              41.0180631
            ],
            [
              29.0083448,
              41.0180218
            ],
            [
              29.0082473,
              41.0180759
            ],
            [
              29.008126,
              41.0185256
            ],
            [
              29.0083692,
              41.0186365
            ],
            [
              29.0083257,
              41.0186986
            ],
            [
              29.007948,
              41.018595
            ],
            [
              29.0080218,
              41.0182655
            ],
            [
              29.0081785,
              41.0179347
            ],
            [
              29.0083815,
              41.0178926
            ],
            [
              29.0084402,
              41.017828
            ],
            [
              29.008446,
              41.0177283
            ],
            [
              29.0085234,
              41.0176194
            ],
            [
              29.0087143,
              41.0175321
            ],
            [
              29.0092379,
              41.0172277
            ],
            [
              29.0095898,
              41.0169622
            ],
            [
              29.0099881,
              41.0165421
            ],
            [
              29.010313,
              41.0160759
            ],
            [
              29.0105654,
              41.0156236
            ],
            [
              29.0106736,
              41.0152656
            ],
            [
              29.0107571,
              41.0148963
            ],
            [
              29.0108881,
              41.0143718
            ],
            [
              29.0109911,
              41.0137372
            ],
            [
              29.0111505,
              41.0129903
            ],
            [
              29.0110266,
              41.0129422
            ],
            [
              29.0100303,
              41.013191
            ],
            [
              29.0095092,
              41.0139146
            ],
            [
              29.0094428,
              41.0138767
            ],
            [
              29.0100349,
              41.0130004
            ],
            [
              29.0106172,
              41.0128293
            ],
            [
              29.0106153,
              41.0127826
            ],
            [
              29.0108747,
              41.0126046
            ],
            [
              29.0109847,
              41.0124632
            ],
            [
              29.0110146,
              41.0123251
            ],
            [
              29.0104653,
              41.0112112
            ],
            [
              29.0103021,
              41.0111376
            ],
            [
              29.0102581,
              41.0110582
            ],
            [
              29.0101211,
              41.0110748
            ],
            [
              29.0100893,
              41.0110065
            ],
            [
              29.0099946,
              41.0110059
            ],
            [
              29.0099238,
              41.0108274
            ],
            [
              29.0098988,
              41.0107643
            ],
            [
              29.0096798,
              41.0108139
            ],
            [
              29.0094245,
              41.0108616
            ],
            [
              29.0091757,
              41.0109388
            ],
            [
              29.0089197,
              41.0109548
            ],
            [
              29.008896,
              41.0109117
            ],
            [
              29.0094181,
              41.0106283
            ],
            [
              29.0100515,
              41.0104624
            ],
            [
              29.009994,
              41.0103455
            ],
            [
              29.0097866,
              41.0099243
            ],
            [
              29.0100344,
              41.0095251
            ],
            [
              29.0098428,
              41.009463
            ],
            [
              29.0096174,
              41.0096511
            ],
            [
              29.0095545,
              41.0096293
            ],
            [
              29.009829,
              41.0092283
            ],
            [
              29.0096267,
              41.0091578
            ],
            [
              29.0093706,
              41.0093614
            ],
            [
              29.0091609,
              41.0092061
            ],
            [
              29.008087,
              41.0095183
            ],
            [
              29.007199,
              41.0109158
            ],
            [
              29.0070716,
              41.0108636
            ],
            [
              29.006983,
              41.0110027
            ],
            [
              29.0068601,
              41.0109525
            ],
            [
              29.0075788,
              41.0098223
            ],
            [
              29.0073,
              41.0096975
            ],
            [
              29.0074105,
              41.0095001
            ],
            [
              29.0091757,
              41.0090004
            ],
            [
              29.0103569,
              41.0072237
            ],
            [
              29.0102347,
              41.0071007
            ],
            [
              29.0067059,
              41.0074352
            ],
            [
              29.0066612,
              41.0073035
            ],
            [
              29.0079134,
              41.0055001
            ],
            [
              29.0079665,
              41.0054235
            ],
            [
              29.0083587,
              41.0048587
            ],
            [
              29.01244,
              41.0044517
            ],
            [
              29.0124275,
              41.004262
            ],
            [
              29.0134669,
              41.0026265
            ],
            [
              29.0133872,
              41.0025344
            ],
            [
              29.0104854,
              41.0028165
            ],
            [
              29.0103433,
              41.0026696
            ],
            [
              29.0115514,
              41.0008972
            ],
            [
              29.015483,
              41.0005265
            ],
            [
              29.0157564,
              41.0002827
            ],
            [
              29.0157894,
              41.0002533
            ],
            [
              29.0176451,
              41.0012922
            ],
            [
              29.0189642,
              41.0000735
            ],
            [
              29.0201199,
              40.9989566
            ],
            [
              29.0206207,
              40.9989714
            ],
            [
              29.0211828,
              40.9984136
            ],
            [
              29.0214836,
              40.9984092
            ],
            [
              29.021628,
              40.9984637
            ],
            [
              29.0218033,
              40.9985299
            ],
            [
              29.0221404,
              40.9987851
            ],
            [
              29.022103,
              40.9989938
            ],
            [
              29.0223502,
              40.9991889
            ],
            [
              29.0225737,
              40.9993602
            ],
            [
              29.0230431,
              40.9996001
            ],
            [
              29.0233401,
              40.9997634
            ],
            [
              29.0236235,
              41.0001215
            ],
            [
              29.0238308,
              41.0003993
            ],
            [
              29.0255548,
              41.0012833
            ],
            [
              29.026524,
              41.0018127
            ],
            [
              29.0273994,
              41.0023502
            ],
            [
              29.0278035,
              41.0025488
            ],
            [
              29.0281249,
              41.0028268
            ],
            [
              29.0275286,
              41.0035289
            ],
            [
              29.0274453,
              41.0039698
            ],
            [
              29.027456,
              41.0041439
            ],
            [
              29.0275472,
              41.0043099
            ],
            [
              29.0277457,
              41.0045082
            ],
            [
              29.0279177,
              41.0047044
            ],
            [
              29.0282339,
              41.0048159
            ],
            [
              29.0286799,
              41.0050249
            ],
            [
              29.0288809,
              41.0052305
            ],
            [
              29.0289636,
              41.0054009
            ],
            [
              29.0291436,
              41.0056869
            ],
            [
              29.0292321,
              41.0058997
            ],
            [
              29.0293216,
              41.0060436
            ],
            [
              29.0294731,
              41.0062409
            ],
            [
              29.0297037,
              41.0063704
            ],
            [
              29.0302867,
              41.0064566
            ],
            [
              29.0305349,
              41.006712
            ],
            [
              29.0306698,
              41.0068598
            ],
            [
              29.0310667,
              41.0070298
            ],
            [
              29.0311314,
              41.0070819
            ],
            [
              29.0312277,
              41.0071594
            ],
            [
              29.0320444,
              41.0076478
            ],
            [
              29.0322187,
              41.007758
            ],
            [
              29.0328155,
              41.0081795
            ],
            [
              29.0329338,
              41.008292
            ],
            [
              29.0330623,
              41.0084143
            ],
            [
              29.0332258,
              41.0085807
            ],
            [
              29.0334673,
              41.0088311
            ],
            [
              29.0334961,
              41.008859
            ],
            [
              29.0335982,
              41.008978
            ],
            [
              29.0340895,
              41.0095211
            ],
            [
              29.0344006,
              41.0098505
            ],
            [
              29.0346313,
              41.0102225
            ],
            [
              29.0346206,
              41.010335
            ],
            [
              29.0348004,
              41.0106326
            ],
            [
              29.0350471,
              41.0110617
            ],
            [
              29.0351567,
              41.0112687
            ],
            [
              29.0352309,
              41.0113895
            ],
            [
              29.035487,
              41.0115555
            ],
            [
              29.035714,
              41.0117161
            ],
            [
              29.0359161,
              41.0118013
            ],
            [
              29.0360054,
              41.0118257
            ],
            [
              29.0361169,
              41.0118562
            ],
            [
              29.0362885,
              41.0119123
            ],
            [
              29.0365555,
              41.0120185
            ],
            [
              29.0365838,
              41.0120298
            ],
            [
              29.0368713,
              41.0121722
            ],
            [
              29.0371097,
              41.0123011
            ],
            [
              29.0372254,
              41.012286
            ],
            [
              29.0381491,
              41.0120548
            ],
            [
              29.0388608,
              41.0118527
            ],
            [
              29.0393993,
              41.0116395
            ],
            [
              29.0394216,
              41.0116276
            ],
            [
              29.039974,
              41.0113581
            ],
            [
              29.0400571,
              41.0112973
            ],
            [
              29.0403341,
              41.0110946
            ],
            [
              29.0404532,
              41.0109897
            ],
            [
              29.0405119,
              41.010938
            ],
            [
              29.040617,
              41.0108455
            ],
            [
              29.0410695,
              41.0104197
            ],
            [
              29.0415028,
              41.0101058
            ],
            [
              29.0418212,
              41.0100199
            ],
            [
              29.0421482,
              41.0099724
            ],
            [
              29.0427176,
              41.0098619
            ],
            [
              29.0436899,
              41.0097013
            ],
            [
              29.0439101,
              41.0096829
            ],
            [
              29.0446893,
              41.0099914
            ],
            [
              29.0454816,
              41.0096298
            ],
            [
              29.0456422,
              41.0095902
            ],
            [
              29.0458551,
              41.0096103
            ],
            [
              29.0460341,
              41.0096926
            ],
            [
              29.0461877,
              41.0097965
            ],
            [
              29.0471574,
              41.0101508
            ],
            [
              29.0471959,
              41.0098036
            ],
            [
              29.0471526,
              41.0092756
            ],
            [
              29.0470824,
              41.0087395
            ],
            [
              29.047024,
              41.0083501
            ],
            [
              29.046879,
              41.0080173
            ],
            [
              29.0468545,
              41.0079612
            ],
            [
              29.0468014,
              41.0078826
            ],
            [
              29.0466889,
              41.0077098
            ],
            [
              29.046586,
              41.0075114
            ],
            [
              29.0465673,
              41.0074842
            ],
            [
              29.0464697,
              41.0073419
            ],
            [
              29.0467654,
              41.0065606
            ],
            [
              29.046815,
              41.0064712
            ],
            [
              29.0468504,
              41.0063441
            ],
            [
              29.046886,
              41.006284
            ],
            [
              29.046905,
              41.0062559
            ],
            [
              29.0469157,
              41.0062403
            ],
            [
              29.0469817,
              41.0061429
            ],
            [
              29.0471548,
              41.0059439
            ],
            [
              29.0475078,
              41.0056629
            ],
            [
              29.0479048,
              41.0054812
            ],
            [
              29.0478195,
              41.0045635
            ],
            [
              29.0478745,
              41.0042725
            ],
            [
              29.0479982,
              41.0035044
            ],
            [
              29.0479537,
              41.0029633
            ],
            [
              29.0478955,
              41.0026921
            ],
            [
              29.0476879,
              41.0024003
            ],
            [
              29.0475189,
              41.0021887
            ],
            [
              29.0474234,
              41.0020123
            ],
            [
              29.0473759,
              41.0019247
            ],
            [
              29.0472018,
              41.0016009
            ],
            [
              29.0484954,
              41.001337
            ],
            [
              29.0496655,
              41.0010552
            ],
            [
              29.05048,
              41.0008528
            ],
            [
              29.0512852,
              41.0006307
            ],
            [
              29.051859,
              41.000468
            ],
            [
              29.0531321,
              41.0000609
            ],
            [
              29.0542092,
              40.9996924
            ],
            [
              29.0552254,
              40.9993269
            ],
            [
              29.0556114,
              40.9991801
            ],
            [
              29.0565187,
              40.9988534
            ],
            [
              29.059901,
              40.9975607
            ],
            [
              29.0607074,
              40.9972628
            ],
            [
              29.0630476,
              40.9963892
            ],
            [
              29.0649537,
              40.9956815
            ],
            [
              29.0657006,
              40.9953906
            ],
            [
              29.0665505,
              40.995079
            ],
            [
              29.0673768,
              40.9947671
            ],
            [
              29.0681598,
              40.9944697
            ],
            [
              29.0692736,
              40.9940557
            ],
            [
              29.073352,
              40.992524
            ],
            [
              29.0737715,
              40.9940496
            ],
            [
              29.0739266,
              40.9950583
            ],
            [
              29.0740516,
              40.9963271
            ],
            [
              29.0740329,
              40.9967136
            ],
            [
              29.0740048,
              40.9968923
            ],
            [
              29.0739806,
              40.9970388
            ],
            [
              29.0736691,
              40.9989872
            ],
            [
              29.0734398,
              41.0001643
            ],
            [
              29.0728989,
              41.0014003
            ],
            [
              29.0724861,
              41.002115
            ],
            [
              29.0723182,
              41.0025163
            ],
            [
              29.0722964,
              41.0026695
            ],
            [
              29.072293,
              41.0029064
            ],
            [
              29.0723558,
              41.0035645
            ],
            [
              29.0724477,
              41.0044348
            ],
            [
              29.0725219,
              41.0051901
            ],
            [
              29.0725775,
              41.0054446
            ],
            [
              29.0726392,
              41.0056665
            ],
            [
              29.0738694,
              41.005781
            ],
            [
              29.0753882,
              41.0060555
            ],
            [
              29.0767782,
              41.0064307
            ],
            [
              29.0775729,
              41.0066838
            ],
            [
              29.0785461,
              41.0070638
            ],
            [
              29.0814741,
              41.0082072
            ],
            [
              29.08346,
              41.0088827
            ],
            [
              29.0851591,
              41.0092204
            ],
            [
              29.0870361,
              41.0094538
            ],
            [
              29.0870841,
              41.0094598
            ],
            [
              29.0888092,
              41.0094893
            ],
            [
              29.0890691,
              41.0094836
            ],
            [
              29.0894421,
              41.0094753
            ],
            [
              29.0893821,
              41.0100059
            ],
            [
              29.0893227,
              41.0102341
            ],
            [
              29.0892849,
              41.0103792
            ],
            [
              29.0892807,
              41.0104834
            ],
            [
              29.0892748,
              41.0106322
            ],
            [
              29.0892579,
              41.0109075
            ],
            [
              29.0893658,
              41.0110954
            ],
            [
              29.0893737,
              41.0112263
            ],
            [
              29.0893546,
              41.0113694
            ],
            [
              29.0892576,
              41.0115952
            ],
            [
              29.0891316,
              41.0119404
            ],
            [
              29.0886524,
              41.0119708
            ],
            [
              29.0881341,
              41.0119357
            ],
            [
              29.0876894,
              41.0136003
            ],
            [
              29.087473,
              41.0140839
            ],
            [
              29.0873369,
              41.0143716
            ],
            [
              29.0870082,
              41.0150678
            ],
            [
              29.0868991,
              41.0153029
            ],
            [
              29.0867711,
              41.0155851
            ],
            [
              29.0866702,
              41.0157709
            ],
            [
              29.0857778,
              41.0174051
            ],
            [
              29.0854902,
              41.018105
            ],
            [
              29.085304,
              41.0181407
            ],
            [
              29.0848775,
              41.0182266
            ],
            [
              29.0844505,
              41.0183737
            ],
            [
              29.0843529,
              41.0185296
            ],
            [
              29.0842596,
              41.0188384
            ],
            [
              29.0842269,
              41.0189465
            ],
            [
              29.0839648,
              41.0195278
            ],
            [
              29.0836672,
              41.0200416
            ],
            [
              29.0834095,
              41.0205945
            ],
            [
              29.0832266,
              41.0211155
            ],
            [
              29.0832427,
              41.0213799
            ],
            [
              29.0833099,
              41.0217747
            ],
            [
              29.0834066,
              41.0221121
            ],
            [
              29.0834938,
              41.0224166
            ],
            [
              29.0835679,
              41.0227997
            ],
            [
              29.0835476,
              41.0230981
            ],
            [
              29.0833801,
              41.0236842
            ],
            [
              29.0830935,
              41.0241339
            ],
            [
              29.0836373,
              41.0242219
            ],
            [
              29.0839326,
              41.0241692
            ],
            [
              29.0845766,
              41.0241682
            ],
            [
              29.0845663,
              41.0244097
            ],
            [
              29.0845963,
              41.0247094
            ],
            [
              29.0830577,
              41.0257116
            ],
            [
              29.0827884,
              41.0259615
            ],
            [
              29.0822777,
              41.0263077
            ],
            [
              29.0819262,
              41.0265225
            ],
            [
              29.0813916,
              41.0270281
            ],
            [
              29.0809568,
              41.0275699
            ],
            [
              29.0807832,
              41.0278242
            ],
            [
              29.0806017,
              41.0281899
            ],
            [
              29.0804601,
              41.0287271
            ],
            [
              29.0803543,
              41.02943
            ],
            [
              29.0806118,
              41.0295648
            ],
            [
              29.0813208,
              41.0298449
            ],
            [
              29.0821734,
              41.0300261
            ],
            [
              29.0822289,
              41.030037
            ],
            [
              29.0824,
              41.0300829
            ],
            [
              29.0824296,
              41.0300925
            ],
            [
              29.0826084,
              41.0301317
            ],
            [
              29.0826181,
              41.0301369
            ],
            [
              29.0828205,
              41.0301768
            ],
            [
              29.0830255,
              41.0302143
            ],
            [
              29.0832324,
              41.0302664
            ],
            [
              29.0838437,
              41.0303993
            ],
            [
              29.084533,
              41.0305576
            ],
            [
              29.0854722,
              41.0307965
            ],
            [
              29.0860409,
              41.0310497
            ],
            [
              29.0869393,
              41.0317482
            ],
            [
              29.0870008,
              41.0320014
            ],
            [
              29.0872738,
              41.0331259
            ],
            [
              29.0873761,
              41.0340381
            ],
            [
              29.0879541,
              41.0353091
            ],
            [
              29.0884419,
              41.0355621
            ],
            [
              29.0887456,
              41.035758
            ],
            [
              29.08897,
              41.035977
            ],
            [
              29.0892604,
              41.0361264
            ],
            [
              29.0895219,
              41.0363107
            ],
            [
              29.0896355,
              41.0363831
            ],
            [
              29.0899781,
              41.0367179
            ],
            [
              29.0903888,
              41.037179
            ],
            [
              29.0905169,
              41.0373972
            ],
            [
              29.0905376,
              41.0375655
            ],
            [
              29.0904394,
              41.0377568
            ],
            [
              29.0902297,
              41.0383975
            ],
            [
              29.0902257,
              41.0384828
            ],
            [
              29.0902166,
              41.0386789
            ],
            [
              29.0902704,
              41.0390481
            ],
            [
              29.0904102,
              41.0392326
            ],
            [
              29.0907829,
              41.0394742
            ],
            [
              29.0909041,
              41.0395606
            ],
            [
              29.0910973,
              41.0396982
            ],
            [
              29.0912779,
              41.0398344
            ],
            [
              29.0915399,
              41.0399486
            ],
            [
              29.0916273,
              41.0401023
            ],
            [
              29.0916708,
              41.0402719
            ],
            [
              29.0916883,
              41.0404203
            ],
            [
              29.0915533,
              41.040617
            ],
            [
              29.0914598,
              41.040741
            ],
            [
              29.0912752,
              41.0409857
            ],
            [
              29.0909165,
              41.0413538
            ],
            [
              29.09053,
              41.0418089
            ],
            [
              29.0903638,
              41.0421624
            ],
            [
              29.090274,
              41.0423535
            ],
            [
              29.0901624,
              41.042809
            ],
            [
              29.0901129,
              41.0431038
            ],
            [
              29.0899439,
              41.0433549
            ],
            [
              29.0896554,
              41.0436625
            ],
            [
              29.0896554,
              41.0438913
            ],
            [
              29.0896924,
              41.0441982
            ],
            [
              29.089732,
              41.044407
            ],
            [
              29.0899144,
              41.04537
            ],
            [
              29.0898922,
              41.0456044
            ],
            [
              29.0898478,
              41.0457941
            ],
            [
              29.089522,
              41.0465139
            ],
            [
              29.0892279,
              41.0468836
            ],
            [
              29.0891001,
              41.0469943
            ],
            [
              29.0890243,
              41.0470599
            ],
            [
              29.088964,
              41.0472931
            ],
            [
              29.0889776,
              41.047491
            ],
            [
              29.088958,
              41.0476079
            ],
            [
              29.0889037,
              41.0478049
            ],
            [
              29.0888056,
              41.0481746
            ],
            [
              29.0888509,
              41.0484533
            ],
            [
              29.0888886,
              41.0486637
            ],
            [
              29.0888223,
              41.0489788
            ],
            [
              29.0887182,
              41.0495946
            ],
            [
              29.088462,
              41.0500354
            ],
            [
              29.088366,
              41.0503373
            ],
            [
              29.0883391,
              41.0509128
            ],
            [
              29.0883288,
              41.0511343
            ],
            [
              29.0883373,
              41.0518009
            ],
            [
              29.088379,
              41.0519739
            ],
            [
              29.0883883,
              41.0520125
            ],
            [
              29.0885545,
              41.0521507
            ],
            [
              29.0886447,
              41.0522856
            ],
            [
              29.0887098,
              41.052452
            ],
            [
              29.0885313,
              41.0527277
            ],
            [
              29.0882678,
              41.0529905
            ],
            [
              29.0879618,
              41.0532725
            ],
            [
              29.0878902,
              41.0533741
            ],
            [
              29.0875476,
              41.0538606
            ],
            [
              29.0872228,
              41.0542961
            ],
            [
              29.0871217,
              41.0546282
            ],
            [
              29.0870062,
              41.0548514
            ],
            [
              29.0868473,
              41.0549962
            ],
            [
              29.0864753,
              41.0551404
            ],
            [
              29.08602,
              41.0552734
            ],
            [
              29.0857339,
              41.055309
            ],
            [
              29.0854136,
              41.0553322
            ],
            [
              29.0851765,
              41.0553267
            ],
            [
              29.0849396,
              41.0553306
            ],
            [
              29.084749,
              41.0553881
            ],
            [
              29.0844661,
              41.0555389
            ],
            [
              29.0838251,
              41.0559786
            ],
            [
              29.0833468,
              41.0561676
            ],
            [
              29.0830935,
              41.0562519
            ],
            [
              29.0830263,
              41.0571558
            ],
            [
              29.0830839,
              41.0573441
            ],
            [
              29.0831161,
              41.057425
            ],
            [
              29.0831482,
              41.0575059
            ],
            [
              29.0832984,
              41.0577
            ],
            [
              29.0835774,
              41.0578376
            ],
            [
              29.0838241,
              41.0580398
            ],
            [
              29.0840709,
              41.0583149
            ],
            [
              29.0843284,
              41.0587436
            ],
            [
              29.0845966,
              41.0593423
            ],
            [
              29.0846503,
              41.0594636
            ],
            [
              29.0847468,
              41.0595607
            ],
            [
              29.0849185,
              41.059674
            ],
            [
              29.0852725,
              41.0598681
            ],
            [
              29.0854549,
              41.0600866
            ],
            [
              29.0854978,
              41.0602807
            ],
            [
              29.0855029,
              41.0604748
            ],
            [
              29.0855086,
              41.0606933
            ],
            [
              29.0854764,
              41.0614052
            ],
            [
              29.0854227,
              41.0616317
            ],
            [
              29.0853047,
              41.0618258
            ],
            [
              29.0851545,
              41.0620038
            ],
            [
              29.0845644,
              41.062562
            ],
            [
              29.0841782,
              41.0629584
            ],
            [
              29.0840387,
              41.0630554
            ],
            [
              29.0838885,
              41.0631444
            ],
            [
              29.0838027,
              41.0632415
            ],
            [
              29.0836954,
              41.0634599
            ],
            [
              29.0836032,
              41.0637433
            ],
            [
              29.0834486,
              41.0642688
            ],
            [
              29.0831268,
              41.0644225
            ],
            [
              29.0828935,
              41.0645499
            ],
            [
              29.082533,
              41.0646476
            ],
            [
              29.0813671,
              41.0648663
            ],
            [
              29.0810376,
              41.0649067
            ],
            [
              29.0802004,
              41.0649493
            ],
            [
              29.0795648,
              41.0650292
            ],
            [
              29.0792858,
              41.0651425
            ],
            [
              29.0790713,
              41.0654013
            ],
            [
              29.0788889,
              41.0656035
            ],
            [
              29.0786207,
              41.0658058
            ],
            [
              29.0783846,
              41.0659109
            ],
            [
              29.0778375,
              41.0660565
            ],
            [
              29.077698,
              41.0661455
            ],
            [
              29.0770542,
              41.0667926
            ],
            [
              29.076904,
              41.0670677
            ],
            [
              29.0768289,
              41.0673265
            ],
            [
              29.0769791,
              41.0678765
            ],
            [
              29.0769362,
              41.068006
            ],
            [
              29.0768182,
              41.0681435
            ],
            [
              29.0764212,
              41.0685075
            ],
            [
              29.076035,
              41.0687825
            ],
            [
              29.0751552,
              41.0694619
            ],
            [
              29.0747154,
              41.0696722
            ],
            [
              29.0744503,
              41.0697591
            ],
            [
              29.0740264,
              41.070168
            ],
            [
              29.0735315,
              41.0705515
            ],
            [
              29.0734921,
              41.0706834
            ],
            [
              29.0734708,
              41.070934
            ],
            [
              29.0733848,
              41.0710772
            ],
            [
              29.0725285,
              41.0721143
            ],
            [
              29.0720508,
              41.0726353
            ],
            [
              29.0718864,
              41.072859
            ],
            [
              29.071843,
              41.0733768
            ],
            [
              29.0718085,
              41.0734359
            ],
            [
              29.0717139,
              41.0735978
            ],
            [
              29.0708497,
              41.0742678
            ],
            [
              29.070354,
              41.0744595
            ],
            [
              29.0700158,
              41.0745373
            ],
            [
              29.0694477,
              41.0745744
            ],
            [
              29.0690007,
              41.0748
            ],
            [
              29.0678748,
              41.0757472
            ]
          ]
        ]
      },
      "id": "relation/1276889"
    },
    {
      "type": "Feature",
      "properties": {
        "@id": "node/26505047",
        "@relations": [
          {
            "role": "label",
            "rel": 1276889,
            "reltags": {
              "admin_level": "6",
              "boundary": "administrative",
              "name": "Üsküdar",
              "name:ar": "أسكدار",
              "name:mk": "Усќудар",
              "name:ru": "Ускюдар",
              "name:tr": "Üsküdar",
              "name:tr:suffix": "İlçesi",
              "network": "TR34-districts",
              "population": "517348",
              "population:date": "2024-01-01",
              "type": "boundary",
              "wikidata": "Q326339",
              "wikipedia": "tr:Üsküdar"
            }
          }
        ]
      },
      "geometry": {
        "type": "Point",
        "coordinates": [
          29.0151321,
          41.0265498
        ]
      },
      "id": "node/26505047"
    }
  ]
}